IRIDIUM 36              
1 24967U 97056C   24342.50651505  .00001116  00000+0  36818-3 0  9994
2 24967  86.3971 253.4711 0002016  79.8749 280.2675 14.37279004424681
IRIDIUM 39              
1 25042U 97069D   24342.42424053  .00001872  00000+0  49107-3 0  9994
2 25042  86.3896 293.3552 0016181 222.2085 137.7874 14.48695103421197
IRIDIUM 38              
1 25043U 97069E   24342.45715407  .00001366  00000+0  44762-3 0  9994
2 25043  86.3939 313.8439 0003222  51.8555 308.2933 14.37763089418406
IRIDIUM 42              
1 25077U 97077A   24342.43858404  .00001182  00000+0  40028-3 0  9990
2 25077  86.3946 319.7863 0002688  73.6568 286.4924 14.36024954413679
IRIDIUM 44              
1 25078U 97077B   24342.42275376  .00001315  00000+0  41254-3 0  9991
2 25078  86.3936 302.2190 0001253  33.0151 327.1126 14.39893846416109
IRIDIUM 45              
1 25104U 97082A   24342.52154778  .00023537  00000+0  10699-2 0  9998
2 25104  86.3630 140.2696 0137428 325.5259  33.7120 15.12464818422974
IRIDIUM 24              
1 25105U 97082B   24342.57131490  .00001223  00000+0  36899-3 0  9999
2 25105  86.3922 161.5218 0011383   1.5585 358.5648 14.41716471415600
IRIDIUM 51              
1 25262U 98018A   24342.56009007  .00039408  00000+0  13631-2 0  9994
2 25262  86.3910 149.4950 0116102 258.6842 100.1339 15.23427640417692
